STARLINK-31159          
1 58740U 24005N   26068.46422473 -.00000317  00000+0 -21620-5 0  9997
2 58740  42.9962 220.6332 0000922 252.9268 107.1482 15.26737472120508
FLOCK 4G-11             
1 62629U 25009W   26068.45629261  .00012672  00000+0  47740-3 0  9990
2 62629  97.3964 150.6183 0001611 333.5407  26.5750 15.27220677 63680
